{
  "type": "FeatureCollection",
  "features": [
    {
      "type": "Feature",
      "properties": {
        "norad_id": 38474,
        "name": "IRIDIUM 33 DEB",
        "group": "iridium-33-debris",
        "lat": 31.67051097925995,
        "lon": -171.93819959747674,
        "alt_km": 711.3585874649625,
        "timestamp": "2025-12-12T03:50:52.803891+00:00",
        "meta_object_name": "IRIDIUM 33 DEB",
        "meta_object_id": "1997-051AAB",
        "meta_epoch": "2025-12-10T08:07:41.049120",
        "meta_mean_motion": 14.50673883,
        "meta_eccentricity": 0.00282895,
        "meta_inclination": 86.3478,
        "meta_ra_of_asc_node": 11.1125,
        "meta_arg_of_pericenter": 95.1128,
        "meta_mean_anomaly": 265.3307,
        "meta_ephemeris_type": 0,
        "meta_classification_type": "U",
        "meta_norad_cat_id": 38474,
        "meta_element_set_no": 999,
        "meta_rev_at_epoch": 65283,
        "meta_bstar": 0.00076503501,
        "meta_mean_motion_dot": 3.04e-05,
        "meta_mean_motion_ddot": 0,
        "tle_line1": "1 38474U 97051AAB 25344.33866955  .00003040  00000+0  76504-3 0  9992",
        "tle_line2": "2 38474  86.3478  11.1125 0028289  95.1128 265.3307 14.50673883652835"
      },
      "geometry": {
        "type": "Point",
        "coordinates": [
          -171.93819959747674,
          31.67051097925995
        ]
      }
    },
    {
      "type": "Feature",
      "properties": {
        "norad_id": 39777,
        "name": "IRIDIUM 33 DEB",
        "group": "iridium-33-debris",
        "lat": -2.4988334261368386,
        "lon": -4.499391320038422,
        "alt_km": 666.0475039061548,
        "timestamp": "2025-12-12T03:50:52.803901+00:00",
        "meta_object_name": "IRIDIUM 33 DEB",
        "meta_object_id": "1997-051AAJ",
        "meta_epoch": "2025-12-11T12:10:17.902560",
        "meta_mean_motion": 14.56385877,
        "meta_eccentricity": 0.00598059,
        "meta_inclination": 85.9631,
        "meta_ra_of_asc_node": 175.641,
        "meta_arg_of_pericenter": 190.6984,
        "meta_mean_anomaly": 169.2957,
        "meta_ephemeris_type": 0,
        "meta_classification_type": "U",
        "meta_norad_cat_id": 39777,
        "meta_element_set_no": 999,
        "meta_rev_at_epoch": 60167,
        "meta_bstar": 0.0050820319,
        "meta_mean_motion_dot": 0.00023171,
        "meta_mean_motion_ddot": 0,
        "tle_line1": "1 39777U 97051AAJ 25345.50715165  .00023171  00000+0  50820-2 0  9994",
        "tle_line2": "2 39777  85.9631 175.6410 0059805 190.6984 169.2957 14.56385877601678"
      },
      "geometry": {
        "type": "Point",
        "coordinates": [
          -4.499391320038422,
          -2.4988334261368386
        ]
      }
    },
    {
      "type": "Feature",
      "properties": {
        "norad_id": 39778,
        "name": "IRIDIUM 33 DEB",
        "group": "iridium-33-debris",
        "lat": 21.721782353175765,
        "lon": 44.922921601495496,
        "alt_km": 706.3137032060022,
        "timestamp": "2025-12-12T03:50:52.803910+00:00",
        "meta_object_name": "IRIDIUM 33 DEB",
        "meta_object_id": "1997-051AAK",
        "meta_epoch": "2025-12-11T14:32:13.918560",
        "meta_mean_motion": 14.54250185,
        "meta_eccentricity": 0.00081089,
        "meta_inclination": 86.3777,
        "meta_ra_of_asc_node": 43.7175,
        "meta_arg_of_pericenter": 45.2066,
        "meta_mean_anomaly": 314.9799,
        "meta_ephemeris_type": 0,
        "meta_classification_type": "U",
        "meta_norad_cat_id": 39778,
        "meta_element_set_no": 999,
        "meta_rev_at_epoch": 60676,
        "meta_bstar": 0.001366485,
        "meta_mean_motion_dot": 5.812e-05,
        "meta_mean_motion_ddot": 0,
        "tle_line1": "1 39778U 97051AAK 25345.60571665  .00005812  00000+0  13665-2 0  9999",
        "tle_line2": "2 39778  86.3777  43.7175 0008108  45.2066 314.9799 14.54250185606763"
      },
      "geometry": {
        "type": "Point",
        "coordinates": [
          44.922921601495496,
          21.721782353175765
        ]
      }
    },
    {
      "type": "Feature",
      "properties": {
        "norad_id": 39781,
        "name": "IRIDIUM 33 DEB",
        "group": "iridium-33-debris",
        "lat": -25.82840909800706,
        "lon": 79.9790490998288,
        "alt_km": 781.9728224954206,
        "timestamp": "2025-12-12T03:50:52.803922+00:00",
        "meta_object_name": "IRIDIUM 33 DEB",
        "meta_object_id": "1997-051AAN",
        "meta_epoch": "2025-12-10T12:50:43.071936",
        "meta_mean_motion": 14.20526294,
        "meta_eccentricity": 0.01776476,
        "meta_inclination": 86.3688,
        "meta_ra_of_asc_node": 258.8875,
        "meta_arg_of_pericenter": 280.3091,
        "meta_mean_anomaly": 261.6771,
        "meta_ephemeris_type": 0,
        "meta_classification_type": "U",
        "meta_norad_cat_id": 39781,
        "meta_element_set_no": 999,
        "meta_rev_at_epoch": 8075,
        "meta_bstar": 0.0089105992,
        "meta_mean_motion_dot": 0.00022501,
        "meta_mean_motion_ddot": 0,
        "tle_line1": "1 39781U 97051AAN 25344.53522074  .00022501  00000+0  89106-2 0  9991",
        "tle_line2": "2 39781  86.3688 258.8875 0177647 280.3091 261.6771 14.20526294 80752"
      },
      "geometry": {
        "type": "Point",
        "coordinates": [
          79.9790490998288,
          -25.82840909800706
        ]
      }
    },
    {
      "type": "Feature",
      "properties": {
        "norad_id": 39783,
        "name": "IRIDIUM 33 DEB",
        "group": "iridium-33-debris",
        "lat": -83.14975549805078,
        "lon": -138.71114183206436,
        "alt_km": 479.4542526738296,
        "timestamp": "2025-12-12T03:50:52.803932+00:00",
        "meta_object_name": "IRIDIUM 33 DEB",
        "meta_object_id": "1997-051AAQ",
        "meta_epoch": "2025-11-16T15:05:40.850592",
        "meta_mean_motion": 15.19327111,
        "meta_eccentricity": 0.00057535,
        "meta_inclination": 86.1306,
        "meta_ra_of_asc_node": 268.8004,
        "meta_arg_of_pericenter": 179.9151,
        "meta_mean_anomaly": 1.8316,
        "meta_ephemeris_type": 0,
        "meta_classification_type": "U",
        "meta_norad_cat_id": 39783,
        "meta_element_set_no": 999,
        "meta_rev_at_epoch": 60401,
        "meta_bstar": 0.010398125,
        "meta_mean_motion_dot": 0.00226179,
        "meta_mean_motion_ddot": 0,
        "tle_line1": "1 39783U 97051AAQ 25320.62894503  .00226179  00000+0  10398-1 0  9999",
        "tle_line2": "2 39783  86.1306 268.8004 0005753 179.9151   1.8316 15.19327111604018"
      },
      "geometry": {
        "type": "Point",
        "coordinates": [
          -138.71114183206436,
          -83.14975549805078
        ]
      }
    },
    {
      "type": "Feature",
      "properties": {
        "norad_id": 40996,
        "name": "IRIDIUM 33 DEB",
        "group": "iridium-33-debris",
        "lat": -39.34292397760411,
        "lon": -175.32161388506114,
        "alt_km": 593.1403099688478,
        "timestamp": "2025-12-12T03:50:52.803946+00:00",
        "meta_object_name": "IRIDIUM 33 DEB",
        "meta_object_id": "1997-051ABJ",
        "meta_epoch": "2025-12-09T19:28:10.178688",
        "meta_mean_motion": 14.95954954,
        "meta_eccentricity": 0.00121472,
        "meta_inclination": 86.3518,
        "meta_ra_of_asc_node": 2.7772,
        "meta_arg_of_pericenter": 71.5463,
        "meta_mean_anomaly": 104.382,
        "meta_ephemeris_type": 0,
        "meta_classification_type": "U",
        "meta_norad_cat_id": 40996,
        "meta_element_set_no": 999,
        "meta_rev_at_epoch": 62444,
        "meta_bstar": 0.0038127414,
        "meta_mean_motion_dot": 0.00042994,
        "meta_mean_motion_ddot": 0,
        "tle_line1": "1 40996U 97051ABJ 25343.81122892  .00042994  00000+0  38127-2 0  9990",
        "tle_line2": "2 40996  86.3518   2.7772 0012147  71.5463 104.3820 14.95954954624440"
      },
      "geometry": {
        "type": "Point",
        "coordinates": [
          -175.32161388506114,
          -39.34292397760411
        ]
      }
    },
    {
      "type": "Feature",
      "properties": {
        "norad_id": 40998,
        "name": "IRIDIUM 33 DEB",
        "group": "iridium-33-debris",
        "lat": 60.350890182618464,
        "lon": 60.28426263554649,
        "alt_km": 729.7129220492861,
        "timestamp": "2025-12-12T03:50:52.803956+00:00",
        "meta_object_name": "IRIDIUM 33 DEB",
        "meta_object_id": "1997-051ABL",
        "meta_epoch": "2025-12-09T22:57:49.203072",
        "meta_mean_motion": 14.45082428,
        "meta_eccentricity": 0.00095723,
        "meta_inclination": 86.3826,
        "meta_ra_of_asc_node": 54.8444,
        "meta_arg_of_pericenter": 91.708,
        "meta_mean_anomaly": 32.8835,
        "meta_ephemeris_type": 0,
        "meta_classification_type": "U",
        "meta_norad_cat_id": 40998,
        "meta_element_set_no": 999,
        "meta_rev_at_epoch": 6641,
        "meta_bstar": 0.00070534207,
        "meta_mean_motion_dot": 2.485e-05,
        "meta_mean_motion_ddot": 0,
        "tle_line1": "1 40998U 97051ABL 25343.95681948  .00002485  00000+0  70534-3 0  9999",
        "tle_line2": "2 40998  86.3826  54.8444 0009572  91.7080  32.8835 14.45082428 66416"
      },
      "geometry": {
        "type": "Point",
        "coordinates": [
          60.28426263554649,
          60.350890182618464
        ]
      }
    }
  ]
}